CCSDS_OMM_VERS = 2.0
CREATION_DATE  = 
ORIGINATOR     = 

OBJECT_NAME    = UNKNOWN
OBJECT_ID      = 
CENTER_NAME    = EARTH
REF_FRAME      = TEME
TIME_SYSTEM    = UTC
MEAN_ELEMENT_THEORY = SGP/SGP4

EPOCH          = 2025-12-05T18:42:33.110496
MEAN_MOTION    = 13.01524250
ECCENTRICITY   = .00339271
INCLINATION    = 90.2385
RA_OF_ASC_NODE = 359.7090
ARG_OF_PERICENTER = 152.6028
MEAN_ANOMALY   = 207.6893

EPHEMERIS_TYPE = 0
CLASSIFICATION_TYPE = U
NORAD_CAT_ID   = 270326
ELEMENT_SET_NO = 999
REV_AT_EPOCH   = 26363
BSTAR          = -.14319023E-2
MEAN_MOTION_DOT = -.434E-5
MEAN_MOTION_DDOT = 0

CCSDS_OMM_VERS = 2.0
CREATION_DATE  = 
ORIGINATOR     = 

OBJECT_NAME    = UNKNOWN
OBJECT_ID      = 
CENTER_NAME    = EARTH
REF_FRAME      = TEME
TIME_SYSTEM    = UTC
MEAN_ELEMENT_THEORY = SGP/SGP4

EPOCH          = 2025-12-04T10:00:32.480640
MEAN_MOTION    = 12.95812699
ECCENTRICITY   = .00307277
INCLINATION    = 90.2913
RA_OF_ASC_NODE = 29.1713
ARG_OF_PERICENTER = 269.0785
MEAN_ANOMALY   = 90.6814

EPHEMERIS_TYPE = 0
CLASSIFICATION_TYPE = U
NORAD_CAT_ID   = 270327
ELEMENT_SET_NO = 999
REV_AT_EPOCH   = 24101
BSTAR          = .21355458E-3
MEAN_MOTION_DOT = .68E-6
MEAN_MOTION_DDOT = 0

CCSDS_OMM_VERS = 2.0
CREATION_DATE  = 
ORIGINATOR     = 

OBJECT_NAME    = UNKNOWN
OBJECT_ID      = 
CENTER_NAME    = EARTH
REF_FRAME      = TEME
TIME_SYSTEM    = UTC
MEAN_ELEMENT_THEORY = SGP/SGP4

EPOCH          = 2025-12-05T11:40:53.806368
MEAN_MOTION    = 12.95118841
ECCENTRICITY   = .01809512
INCLINATION    = 63.4598
RA_OF_ASC_NODE = 47.6440
ARG_OF_PERICENTER = 4.0736
MEAN_ANOMALY   = 356.1689

EPHEMERIS_TYPE = 0
CLASSIFICATION_TYPE = U
NORAD_CAT_ID   = 270328
ELEMENT_SET_NO = 999
REV_AT_EPOCH   = 26168
BSTAR          = .2030677E-2
MEAN_MOTION_DOT = .537E-5
MEAN_MOTION_DDOT = 0

CCSDS_OMM_VERS = 2.0
CREATION_DATE  = 
ORIGINATOR     = 

OBJECT_NAME    = UNKNOWN
OBJECT_ID      = 
CENTER_NAME    = EARTH
REF_FRAME      = TEME
TIME_SYSTEM    = UTC
MEAN_ELEMENT_THEORY = SGP/SGP4

EPOCH          = 2025-12-02T19:51:52.675200
MEAN_MOTION    = 14.36963203
ECCENTRICITY   = .00024507
INCLINATION    = 86.3970
RA_OF_ASC_NODE = 11.2570
ARG_OF_PERICENTER = 93.0548
MEAN_ANOMALY   = 267.0930

EPHEMERIS_TYPE = 0
CLASSIFICATION_TYPE = U
NORAD_CAT_ID   = 270329
ELEMENT_SET_NO = 999
REV_AT_EPOCH   = 25352
BSTAR          = .25992374E-3
MEAN_MOTION_DOT = .789E-5
MEAN_MOTION_DDOT = 0

CCSDS_OMM_VERS = 2.0
CREATION_DATE  = 
ORIGINATOR     = 

OBJECT_NAME    = UNKNOWN
OBJECT_ID      = 
CENTER_NAME    = EARTH
REF_FRAME      = TEME
TIME_SYSTEM    = UTC
MEAN_ELEMENT_THEORY = SGP/SGP4

EPOCH          = 2025-12-05T17:23:33.892512
MEAN_MOTION    = 13.41850927
ECCENTRICITY   = .00449205
INCLINATION    = 100.3053
RA_OF_ASC_NODE = 153.2835
ARG_OF_PERICENTER = 318.8309
MEAN_ANOMALY   = 40.9433

EPHEMERIS_TYPE = 0
CLASSIFICATION_TYPE = U
NORAD_CAT_ID   = 270330
ELEMENT_SET_NO = 999
REV_AT_EPOCH   = 24653
BSTAR          = .5334406E-2
MEAN_MOTION_DOT = .2959E-4
MEAN_MOTION_DDOT = 0

CCSDS_OMM_VERS = 2.0
CREATION_DATE  = 
ORIGINATOR     = 

OBJECT_NAME    = UNKNOWN
OBJECT_ID      = 
CENTER_NAME    = EARTH
REF_FRAME      = TEME
TIME_SYSTEM    = UTC
MEAN_ELEMENT_THEORY = SGP/SGP4

EPOCH          = 2025-12-05T15:51:30.073536
MEAN_MOTION    = 14.28190199
ECCENTRICITY   = .02102463
INCLINATION    = 97.7199
RA_OF_ASC_NODE = 113.5190
ARG_OF_PERICENTER = 297.6010
MEAN_ANOMALY   = 60.3964

EPHEMERIS_TYPE = 0
CLASSIFICATION_TYPE = U
NORAD_CAT_ID   = 270333
ELEMENT_SET_NO = 999
REV_AT_EPOCH   = 4660
BSTAR          = .36232994E-2
MEAN_MOTION_DOT = .11405E-3
MEAN_MOTION_DDOT = 0

CCSDS_OMM_VERS = 2.0
CREATION_DATE  = 
ORIGINATOR     = 

OBJECT_NAME    = UNKNOWN
OBJECT_ID      = 
CENTER_NAME    = EARTH
REF_FRAME      = TEME
TIME_SYSTEM    = UTC
MEAN_ELEMENT_THEORY = SGP/SGP4

EPOCH          = 2025-12-03T04:37:06.949920
MEAN_MOTION    = 14.14654596
ECCENTRICITY   = .01766474
INCLINATION    = 86.4542
RA_OF_ASC_NODE = 301.6797
ARG_OF_PERICENTER = 217.7841
MEAN_ANOMALY   = 141.0837

EPHEMERIS_TYPE = 0
CLASSIFICATION_TYPE = U
NORAD_CAT_ID   = 270334
ELEMENT_SET_NO = 999
REV_AT_EPOCH   = 28030
BSTAR          = .54862612E-2
MEAN_MOTION_DOT = .12286E-3
MEAN_MOTION_DDOT = 0

CCSDS_OMM_VERS = 2.0
CREATION_DATE  = 
ORIGINATOR     = 

OBJECT_NAME    = UNKNOWN
OBJECT_ID      = 
CENTER_NAME    = EARTH
REF_FRAME      = TEME
TIME_SYSTEM    = UTC
MEAN_ELEMENT_THEORY = SGP/SGP4

EPOCH          = 2025-12-05T09:59:50.028000
MEAN_MOTION    = 14.14556800
ECCENTRICITY   = .00715215
INCLINATION    = 66.6644
RA_OF_ASC_NODE = 221.7704
ARG_OF_PERICENTER = 72.2649
MEAN_ANOMALY   = 288.6230

EPHEMERIS_TYPE = 0
CLASSIFICATION_TYPE = U
NORAD_CAT_ID   = 270335
ELEMENT_SET_NO = 999
REV_AT_EPOCH   = 23613
BSTAR          = .60294632E-3
MEAN_MOTION_DOT = .1105E-4
MEAN_MOTION_DDOT = 0

CCSDS_OMM_VERS = 2.0
CREATION_DATE  = 
ORIGINATOR     = 

OBJECT_NAME    = UNKNOWN
OBJECT_ID      = 
CENTER_NAME    = EARTH
REF_FRAME      = TEME
TIME_SYSTEM    = UTC
MEAN_ELEMENT_THEORY = SGP/SGP4

EPOCH          = 2025-12-06T07:20:53.963232
MEAN_MOTION    = 14.25610999
ECCENTRICITY   = .00110512
INCLINATION    = 81.2870
RA_OF_ASC_NODE = 194.1400
ARG_OF_PERICENTER = 332.4295
MEAN_ANOMALY   = 27.6297

EPHEMERIS_TYPE = 0
CLASSIFICATION_TYPE = U
NORAD_CAT_ID   = 270336
ELEMENT_SET_NO = 999
REV_AT_EPOCH   = 23453
BSTAR          = .18981491E-2
MEAN_MOTION_DOT = .451E-4
MEAN_MOTION_DDOT = 0

CCSDS_OMM_VERS = 2.0
CREATION_DATE  = 
ORIGINATOR     = 

OBJECT_NAME    = UNKNOWN
OBJECT_ID      = 
CENTER_NAME    = EARTH
REF_FRAME      = TEME
TIME_SYSTEM    = UTC
MEAN_ELEMENT_THEORY = SGP/SGP4

EPOCH          = 2025-11-15T03:57:10.801440
MEAN_MOTION    = 13.84025289
ECCENTRICITY   = .01461089
INCLINATION    = 99.0885
RA_OF_ASC_NODE = 277.5875
ARG_OF_PERICENTER = 248.1117
MEAN_ANOMALY   = 110.4448

EPHEMERIS_TYPE = 0
CLASSIFICATION_TYPE = U
NORAD_CAT_ID   = 270338
ELEMENT_SET_NO = 999
REV_AT_EPOCH   = 22328
BSTAR          = .12681163E-2
MEAN_MOTION_DOT = .1488E-4
MEAN_MOTION_DDOT = 0

CCSDS_OMM_VERS = 2.0
CREATION_DATE  = 
ORIGINATOR     = 

OBJECT_NAME    = UNKNOWN
OBJECT_ID      = 
CENTER_NAME    = EARTH
REF_FRAME      = TEME
TIME_SYSTEM    = UTC
MEAN_ELEMENT_THEORY = SGP/SGP4

EPOCH          = 2025-12-04T13:41:57.440544
MEAN_MOTION    = 12.16163542
ECCENTRICITY   = .08516517
INCLINATION    = 83.2299
RA_OF_ASC_NODE = 284.5141
ARG_OF_PERICENTER = 284.8118
MEAN_ANOMALY   = 66.0190

EPHEMERIS_TYPE = 0
CLASSIFICATION_TYPE = U
NORAD_CAT_ID   = 270339
ELEMENT_SET_NO = 999
REV_AT_EPOCH   = 20125
BSTAR          = .4088581E-3
MEAN_MOTION_DOT = .13E-5
MEAN_MOTION_DDOT = 0

CCSDS_OMM_VERS = 2.0
CREATION_DATE  = 
ORIGINATOR     = 

OBJECT_NAME    = UNKNOWN
OBJECT_ID      = 
CENTER_NAME    = EARTH
REF_FRAME      = TEME
TIME_SYSTEM    = UTC
MEAN_ELEMENT_THEORY = SGP/SGP4

EPOCH          = 2025-12-05T10:18:32.352768
MEAN_MOTION    = 13.83767828
ECCENTRICITY   = .01456834
INCLINATION    = 98.8135
RA_OF_ASC_NODE = 217.3441
ARG_OF_PERICENTER = 144.5879
MEAN_ANOMALY   = 216.5057

EPHEMERIS_TYPE = 0
CLASSIFICATION_TYPE = U
NORAD_CAT_ID   = 270340
ELEMENT_SET_NO = 999
REV_AT_EPOCH   = 22673
BSTAR          = .88585541E-3
MEAN_MOTION_DOT = .1025E-4
MEAN_MOTION_DDOT = 0

CCSDS_OMM_VERS = 2.0
CREATION_DATE  = 
ORIGINATOR     = 

OBJECT_NAME    = UNKNOWN
OBJECT_ID      = 
CENTER_NAME    = EARTH
REF_FRAME      = TEME
TIME_SYSTEM    = UTC
MEAN_ELEMENT_THEORY = SGP/SGP4

EPOCH          = 2025-12-05T14:17:08.927808
MEAN_MOTION    = 14.20658882
ECCENTRICITY   = .01022081
INCLINATION    = 98.6831
RA_OF_ASC_NODE = 246.0244
ARG_OF_PERICENTER = 303.3927
MEAN_ANOMALY   = 55.7503

EPHEMERIS_TYPE = 0
CLASSIFICATION_TYPE = U
NORAD_CAT_ID   = 270342
ELEMENT_SET_NO = 999
REV_AT_EPOCH   = 22157
BSTAR          = .55770478E-2
MEAN_MOTION_DOT = .12637E-3
MEAN_MOTION_DDOT = 0

CCSDS_OMM_VERS = 2.0
CREATION_DATE  = 
ORIGINATOR     = 

OBJECT_NAME    = UNKNOWN
OBJECT_ID      = 
CENTER_NAME    = EARTH
REF_FRAME      = TEME
TIME_SYSTEM    = UTC
MEAN_ELEMENT_THEORY = SGP/SGP4

EPOCH          = 2025-12-05T14:11:01.896288
MEAN_MOTION    = 12.45315378
ECCENTRICITY   = .07048213
INCLINATION    = 83.4044
RA_OF_ASC_NODE = 89.2051
ARG_OF_PERICENTER = 359.7496
MEAN_ANOMALY   = 0.3141

EPHEMERIS_TYPE = 0
CLASSIFICATION_TYPE = U
NORAD_CAT_ID   = 270343
ELEMENT_SET_NO = 999
REV_AT_EPOCH   = 19315
BSTAR          = .47048741E-2
MEAN_MOTION_DOT = .1646E-4
MEAN_MOTION_DDOT = 0

CCSDS_OMM_VERS = 2.0
CREATION_DATE  = 
ORIGINATOR     = 

OBJECT_NAME    = UNKNOWN
OBJECT_ID      = 
CENTER_NAME    = EARTH
REF_FRAME      = TEME
TIME_SYSTEM    = UTC
MEAN_ELEMENT_THEORY = SGP/SGP4

EPOCH          = 2025-12-03T00:59:44.542464
MEAN_MOTION    = 13.06534706
ECCENTRICITY   = .02655072
INCLINATION    = 105.8366
RA_OF_ASC_NODE = 74.8245
ARG_OF_PERICENTER = 128.7903
MEAN_ANOMALY   = 233.7216

EPHEMERIS_TYPE = 0
CLASSIFICATION_TYPE = U
NORAD_CAT_ID   = 270344
ELEMENT_SET_NO = 999
REV_AT_EPOCH   = 20082
BSTAR          = .46682879E-3
MEAN_MOTION_DOT = .103E-5
MEAN_MOTION_DDOT = 0

CCSDS_OMM_VERS = 2.0
CREATION_DATE  = 
ORIGINATOR     = 

OBJECT_NAME    = UNKNOWN
OBJECT_ID      = 
CENTER_NAME    = EARTH
REF_FRAME      = TEME
TIME_SYSTEM    = UTC
MEAN_ELEMENT_THEORY = SGP/SGP4

EPOCH          = 2025-11-29T06:59:27.816288
MEAN_MOTION    = 12.98334025
ECCENTRICITY   = .00299343
INCLINATION    = 90.2326
RA_OF_ASC_NODE = 352.5550
ARG_OF_PERICENTER = 197.8076
MEAN_ANOMALY   = 162.1999

EPHEMERIS_TYPE = 0
CLASSIFICATION_TYPE = U
NORAD_CAT_ID   = 270346
ELEMENT_SET_NO = 999
REV_AT_EPOCH   = 19242
BSTAR          = .19657288E-2
MEAN_MOTION_DOT = .586E-5
MEAN_MOTION_DDOT = 0

